{"type": "FeatureCollection", "features": [ {"type": "Feature", "properties": {"norad_id": 34529, "name": "IRIDIUM 33 DEB", "group": "iridium-33-debris", "lat": -86.34356463079077, "lon": -57.49387173539083, "alt_km": 762.9376462588889, "timestamp": "2025-12-05T22:40:48.934876+00:00", "meta": {"OBJECT_NAME": "IRIDIUM 33 DEB", "OBJECT_ID": "1997-051HW", "EPOCH": "2025-12-05T03:05:42.408384", "MEAN_MOTION": 14.40606808, "ECCENTRICITY": 0.00038726, "INCLINATION": 86.3646, "RA_OF_ASC_NODE": 38.6558, "ARG_OF_PERICENTER": 203.7968, "MEAN_ANOMALY": 156.3053, "EPHEMERIS_TYPE": 0, "CLASSIFICATION_TYPE": "U", "NORAD_CAT_ID": 34529, "ELEMENT_SET_NO": 999, "REV_AT_EPOCH": 88032, "BSTAR": 0.00023962483, "MEAN_MOTION_DOT": 7.83e-06, "MEAN_MOTION_DDOT": 0}, "tle": {"line1": "1 34529U 97051HW  25339.12896306  .00000783  00000+0  23962-3 0  9994", "line2": "2 34529  86.3646  38.6558 0003872 203.7968 156.3053 14.40606808880329"}}, "geometry": {"type": "Point", "coordinates": [-57.49387173539083, -86.34356463079077]}}, {"type": "Feature", "properties": {"norad_id": 34538, "name": "IRIDIUM 33 DEB", "group": "iridium-33-debris", "lat": 57.77836515681031, "lon": 14.461560349550592, "alt_km": 735.0175164868515, "timestamp": "2025-12-05T22:40:48.934886+00:00", "meta": {"OBJECT_NAME": "IRIDIUM 33 DEB", "OBJECT_ID": "1997-051JF", "EPOCH": "2025-12-05T02:44:18.562272", "MEAN_MOTION": 14.42579883, "ECCENTRICITY": 0.00337705, "INCLINATION": 86.2775, "RA_OF_ASC_NODE": 8.8962, "ARG_OF_PERICENTER": 353.7292, "MEAN_ANOMALY": 71.5332, "EPHEMERIS_TYPE": 0, "CLASSIFICATION_TYPE": "U", "NORAD_CAT_ID": 34538, "ELEMENT_SET_NO": 999, "REV_AT_EPOCH": 87646, "BSTAR": 0.0019728106, "MEAN_MOTION_DOT": 6.612e-05, "MEAN_MOTION_DDOT": 0}, "tle": {"line1": "1 34538U 97051JF  25339.11410373  .00006612  00000+0  19728-2 0  9990", "line2": "2 34538  86.2775   8.8962 0033770 353.7292  71.5332 14.42579883876467"}}, "geometry": {"type": "Point", "coordinates": [14.461560349550592, 57.77836515681031]}}, {"type": "Feature", "properties": {"norad_id": 34540, "name": "IRIDIUM 33 DEB", "group": "iridium-33-debris", "lat": 39.58770731776375, "lon": -46.22778574861448, "alt_km": 650.398106216021, "timestamp": "2025-12-05T22:40:48.934897+00:00", "meta": {"OBJECT_NAME": "IRIDIUM 33 DEB", "OBJECT_ID": "1997-051JH", "EPOCH": "2025-12-04T09:44:19.454208", "MEAN_MOTION": 14.75040189, "ECCENTRICITY": 0.0014993, "INCLINATION": 86.3094, "RA_OF_ASC_NODE": 311.4162, "ARG_OF_PERICENTER": 189.6254, "MEAN_ANOMALY": 321.8404, "EPHEMERIS_TYPE": 0, "CLASSIFICATION_TYPE": "U", "NORAD_CAT_ID": 34540, "ELEMENT_SET_NO": 999, "REV_AT_EPOCH": 88898, "BSTAR": 0.004011, "MEAN_MOTION_DOT": 0.00027148, "MEAN_MOTION_DDOT": 0}, "tle": {"line1": "1 34540U 97051JH  25338.40578072  .00027148  00000+0  40110-2 0  9991", "line2": "2 34540  86.3094 311.4162 0014993 189.6254 321.8404 14.75040189888989"}}, "geometry": {"type": "Point", "coordinates": [-46.22778574861448, 39.58770731776375]}}, {"type": "Feature", "properties": {"norad_id": 34648, "name": "IRIDIUM 33 DEB", "group": "iridium-33-debris", "lat": -54.371610084399244, "lon": -80.36440630256266, "alt_km": 731.7533025536004, "timestamp": "2025-12-05T22:40:48.934907+00:00", "meta": {"OBJECT_NAME": "IRIDIUM 33 DEB", "OBJECT_ID": "1997-051JZ", "EPOCH": "2025-12-01T03:11:38.418720", "MEAN_MOTION": 14.1087899, "ECCENTRICITY": 0.01868529, "INCLINATION": 86.3903, "RA_OF_ASC_NODE": 286.6295, "ARG_OF_PERICENTER": 334.6513, "MEAN_ANOMALY": 24.5588, "EPHEMERIS_TYPE": 0, "CLASSIFICATION_TYPE": "U", "NORAD_CAT_ID": 34648, "ELEMENT_SET_NO": 999, "REV_AT_EPOCH": 84797, "BSTAR": 0.0079356223, "MEAN_MOTION_DOT": 0.00016788, "MEAN_MOTION_DDOT": 0}, "tle": {"line1": "1 34648U 97051JZ  25335.13308355  .00016788  00000+0  79356-2 0  9994", "line2": "2 34648  86.3903 286.6295 0186852 334.6513  24.5588 14.10878990847973"}}, "geometry": {"type": "Point", "coordinates": [-80.36440630256266, -54.371610084399244]}}, {"type": "Feature", "properties": {"norad_id": 34651, "name": "IRIDIUM 33 DEB", "group": "iridium-33-debris", "lat": 13.602478965699971, "lon": 144.3672823730165, "alt_km": 893.6346372846529, "timestamp": "2025-12-05T22:40:48.934921+00:00", "meta": {"OBJECT_NAME": "IRIDIUM 33 DEB", "OBJECT_ID": "1997-051KC", "EPOCH": "2025-12-04T11:14:22.766784", "MEAN_MOTION": 14.25597734, "ECCENTRICITY": 0.0141881, "INCLINATION": 86.2823, "RA_OF_ASC_NODE": 144.094, "ARG_OF_PERICENTER": 230.2415, "MEAN_ANOMALY": 128.6209, "EPHEMERIS_TYPE": 0, "CLASSIFICATION_TYPE": "U", "NORAD_CAT_ID": 34651, "ELEMENT_SET_NO": 999, "REV_AT_EPOCH": 85778, "BSTAR": 0.0077267, "MEAN_MOTION_DOT": 0.00020383, "MEAN_MOTION_DDOT": 0}, "tle": {"line1": "1 34651U 97051KC  25338.46831906  .00020383  00000+0  77267-2 0  9995", "line2": "2 34651  86.2823 144.0940 0141881 230.2415 128.6209 14.25597734857782"}}, "geometry": {"type": "Point", "coordinates": [144.3672823730165, 13.602478965699971]}}, {"type": "Feature", "properties": {"norad_id": 34652, "name": "IRIDIUM 33 DEB", "group": "iridium-33-debris", "lat": -77.01384613600443, "lon": 179.1842408205063, "alt_km": 686.3526032230347, "timestamp": "2025-12-05T22:40:48.934933+00:00", "meta": {"OBJECT_NAME": "IRIDIUM 33 DEB", "OBJECT_ID": "1997-051KD", "EPOCH": "2025-12-05T06:47:28.910400", "MEAN_MOTION": 14.6194715, "ECCENTRICITY": 0.00267279, "INCLINATION": 86.3306, "RA_OF_ASC_NODE": 343.3218, "ARG_OF_PERICENTER": 325.0807, "MEAN_ANOMALY": 50.6373, "EPHEMERIS_TYPE": 0, "CLASSIFICATION_TYPE": "U", "NORAD_CAT_ID": 34652, "ELEMENT_SET_NO": 999, "REV_AT_EPOCH": 88375, "BSTAR": 0.0018811698, "MEAN_MOTION_DOT": 9.492e-05, "MEAN_MOTION_DDOT": 0}, "tle": {"line1": "1 34652U 97051KD  25339.28297350  .00009492  00000+0  18812-2 0  9995", "line2": "2 34652  86.3306 343.3218 0026727 325.0807  50.6373 14.61947150883754"}}, "geometry": {"type": "Point", "coordinates": [179.1842408205063, -77.01384613600443]}}, {"type": "Feature", "properties": {"norad_id": 34690, "name": "IRIDIUM 33 DEB", "group": "iridium-33-debris", "lat": -69.8897545239141, "lon": 29.985103939623762, "alt_km": 720.5853802459214, "timestamp": "2025-12-05T22:40:48.934943+00:00", "meta": {"OBJECT_NAME": "IRIDIUM 33 DEB", "OBJECT_ID": "1997-051KM", "EPOCH": "2025-12-05T05:07:04.785312", "MEAN_MOTION": 14.55051508, "ECCENTRICITY": 0.00116101, "INCLINATION": 86.3789, "RA_OF_ASC_NODE": 40.2624, "ARG_OF_PERICENTER": 51.712, "MEAN_ANOMALY": 7.605, "EPHEMERIS_TYPE": 0, "CLASSIFICATION_TYPE": "U", "NORAD_CAT_ID": 34690, "ELEMENT_SET_NO": 999, "REV_AT_EPOCH": 87985, "BSTAR": 0.00091494528, "MEAN_MOTION_DOT": 3.967e-05, "MEAN_MOTION_DDOT": 0}, "tle": {"line1": "1 34690U 97051KM  25339.21324983  .00003967  00000+0  91495-3 0  9993", "line2": "2 34690  86.3789  40.2624 0011610  51.7120   7.6050 14.55051508879857"}}, "geometry": {"type": "Point", "coordinates": [29.985103939623762, -69.8897545239141]}}, {"type": "Feature", "properties": {"norad_id": 34693, "name": "IRIDIUM 33 DEB", "group": "iridium-33-debris", "lat": 28.079852647212338, "lon": -50.831312440054006, "alt_km": 478.752943406791, "timestamp": "2025-12-05T22:40:48.934953+00:00", "meta": {"OBJECT_NAME": "IRIDIUM 33 DEB", "OBJECT_ID": "1997-051KQ", "EPOCH": "2025-12-05T05:31:04.272384", "MEAN_MOTION": 15.2536237, "ECCENTRICITY": 0.00157553, "INCLINATION": 86.3057, "RA_OF_ASC_NODE": 307.5471, "ARG_OF_PERICENTER": 63.8696, "MEAN_ANOMALY": 359.9929, "EPHEMERIS_TYPE": 0, "CLASSIFICATION_TYPE": "U", "NORAD_CAT_ID": 34693, "ELEMENT_SET_NO": 999, "REV_AT_EPOCH": 88800, "BSTAR": 0.0073217826, "MEAN_MOTION_DOT": 0.00189655, "MEAN_MOTION_DDOT": 0}, "tle": {"line1": "1 34693U 97051KQ  25339.22991056  .00189655  00000+0  73218-2 0  9999", "line2": "2 34693  86.3057 307.5471 0015755  63.8696 359.9929 15.25362370888008"}}, "geometry": {"type": "Point", "coordinates": [-50.831312440054006, 28.079852647212338]}}, {"type": "Feature", "properties": {"norad_id": 34696, "name": "IRIDIUM 33 DEB", "group": "iridium-33-debris", "lat": -10.611586750574038, "lon": -148.60095819608978, "alt_km": 630.2900578563513, "timestamp": "2025-12-05T22:40:48.934963+00:00", "meta": {"OBJECT_NAME": "IRIDIUM 33 DEB", "OBJECT_ID": "1997-051KT", "EPOCH": "2025-12-05T04:01:30.427392", "MEAN_MOTION": 14.64460399, "ECCENTRICITY": 0.00745546, "INCLINATION": 86.1851, "RA_OF_ASC_NODE": 31.0439, "ARG_OF_PERICENTER": 193.3089, "MEAN_ANOMALY": 221.7713, "EPHEMERIS_TYPE": 0, "CLASSIFICATION_TYPE": "U", "NORAD_CAT_ID": 34696, "ELEMENT_SET_NO": 999, "REV_AT_EPOCH": 86562, "BSTAR": 0.011279279, "MEAN_MOTION_DOT": 0.0006268, "MEAN_MOTION_DDOT": 0}, "tle": {"line1": "1 34696U 97051KT  25339.16771328  .00062680  00000+0  11279-1 0  9999", "line2": "2 34696  86.1851  31.0439 0074554 193.3089 221.7713 14.64460399865623"}}, "geometry": {"type": "Point", "coordinates": [-148.60095819608978, -10.611586750574038]}}, {"type": "Feature", "properties": {"norad_id": 34765, "name": "IRIDIUM 33 DEB", "group": "iridium-33-debris", "lat": -43.95493779315983, "lon": 32.13762042160402, "alt_km": 761.9775851495442, "timestamp": "2025-12-05T22:40:48.934974+00:00", "meta": {"OBJECT_NAME": "IRIDIUM 33 DEB", "OBJECT_ID": "1997-051LJ", "EPOCH": "2025-12-05T04:49:32.160288", "MEAN_MOTION": 14.40434578, "ECCENTRICITY": 0.00147508, "INCLINATION": 86.3394, "RA_OF_ASC_NODE": 35.9955, "ARG_OF_PERICENTER": 238.4713, "MEAN_ANOMALY": 182.0621, "EPHEMERIS_TYPE": 0, "CLASSIFICATION_TYPE": "U", "NORAD_CAT_ID": 34765, "ELEMENT_SET_NO": 999, "REV_AT_EPOCH": 87505, "BSTAR": 0.00075186507, "MEAN_MOTION_DOT": 2.41e-05, "MEAN_MOTION_DDOT": 0}, "tle": {"line1": "1 34765U 97051LJ  25339.20106667  .00002410  00000+0  75187-3 0  9994", "line2": "2 34765  86.3394  35.9955 0014750 238.4713 182.0621 14.40434578875056"}}, "geometry": {"type": "Point", "coordinates": [32.13762042160402, -43.95493779315983]}}]}